CCSDS_OMM_VERS = 2.0
CREATION_DATE  = 
ORIGINATOR     = 

OBJECT_NAME    = STARLINK-35513
OBJECT_ID      = 2025-225W
CENTER_NAME    = EARTH
REF_FRAME      = TEME
TIME_SYSTEM    = UTC
MEAN_ELEMENT_THEORY = SGP/SGP4

EPOCH          = 2025-11-03T20:00:03.000384
MEAN_MOTION    = 15.49347477
ECCENTRICITY   = .0000975
INCLINATION    = 53.1603
RA_OF_ASC_NODE = 32.3109
ARG_OF_PERICENTER = 57.9981
MEAN_ANOMALY   = 177.7684

EPHEMERIS_TYPE = 0
CLASSIFICATION_TYPE = U
NORAD_CAT_ID   = 65930
ELEMENT_SET_NO = 999
REV_AT_EPOCH   = 517
BSTAR          = -.1832E-2
MEAN_MOTION_DOT = -.101162E-2
MEAN_MOTION_DDOT = 0

CCSDS_OMM_VERS = 2.0
CREATION_DATE  = 
ORIGINATOR     = 

OBJECT_NAME    = STARLINK-35526
OBJECT_ID      = 2025-225X
CENTER_NAME    = EARTH
REF_FRAME      = TEME
TIME_SYSTEM    = UTC
MEAN_ELEMENT_THEORY = SGP/SGP4

EPOCH          = 2025-11-03T20:00:03.000384
MEAN_MOTION    = 15.49347148
ECCENTRICITY   = .0000985
INCLINATION    = 53.1601
RA_OF_ASC_NODE = 32.2987
ARG_OF_PERICENTER = 78.4732
MEAN_ANOMALY   = 163.0436

EPHEMERIS_TYPE = 0
CLASSIFICATION_TYPE = U
NORAD_CAT_ID   = 65931
ELEMENT_SET_NO = 999
REV_AT_EPOCH   = 517
BSTAR          = -.18286E-2
MEAN_MOTION_DOT = -.100979E-2
MEAN_MOTION_DDOT = 0

CCSDS_OMM_VERS = 2.0
CREATION_DATE  = 
ORIGINATOR     = 

OBJECT_NAME    = STARLINK-35436
OBJECT_ID      = 2025-225Y
CENTER_NAME    = EARTH
REF_FRAME      = TEME
TIME_SYSTEM    = UTC
MEAN_ELEMENT_THEORY = SGP/SGP4

EPOCH          = 2025-11-03T20:00:03.000384
MEAN_MOTION    = 15.49345243
ECCENTRICITY   = .0001019
INCLINATION    = 53.1601
RA_OF_ASC_NODE = 32.2954
ARG_OF_PERICENTER = 78.9646
MEAN_ANOMALY   = 164.4681

EPHEMERIS_TYPE = 0
CLASSIFICATION_TYPE = U
NORAD_CAT_ID   = 65932
ELEMENT_SET_NO = 999
REV_AT_EPOCH   = 517
BSTAR          = -.17094E-2
MEAN_MOTION_DOT = -.94499E-3
MEAN_MOTION_DDOT = 0

CCSDS_OMM_VERS = 2.0
CREATION_DATE  = 
ORIGINATOR     = 

OBJECT_NAME    = STARLINK-35192
OBJECT_ID      = 2025-225Z
CENTER_NAME    = EARTH
REF_FRAME      = TEME
TIME_SYSTEM    = UTC
MEAN_ELEMENT_THEORY = SGP/SGP4

EPOCH          = 2025-11-03T20:00:03.000384
MEAN_MOTION    = 15.49342194
ECCENTRICITY   = .0001052
INCLINATION    = 53.1601
RA_OF_ASC_NODE = 32.2829
ARG_OF_PERICENTER = 69.0247
MEAN_ANOMALY   = 180.1557

EPHEMERIS_TYPE = 0
CLASSIFICATION_TYPE = U
NORAD_CAT_ID   = 65933
ELEMENT_SET_NO = 999
REV_AT_EPOCH   = 517
BSTAR          = -.15767E-2
MEAN_MOTION_DOT = -.87269E-3
MEAN_MOTION_DDOT = 0

CCSDS_OMM_VERS = 2.0
CREATION_DATE  = 
ORIGINATOR     = 

OBJECT_NAME    = STARLINK-33921
OBJECT_ID      = 2025-225AA
CENTER_NAME    = EARTH
REF_FRAME      = TEME
TIME_SYSTEM    = UTC
MEAN_ELEMENT_THEORY = SGP/SGP4

EPOCH          = 2025-11-03T20:00:03.000384
MEAN_MOTION    = 15.49338677
ECCENTRICITY   = .000098
INCLINATION    = 53.1601
RA_OF_ASC_NODE = 32.2912
ARG_OF_PERICENTER = 82.7334
MEAN_ANOMALY   = 162.6135

EPHEMERIS_TYPE = 0
CLASSIFICATION_TYPE = U
NORAD_CAT_ID   = 65934
ELEMENT_SET_NO = 999
REV_AT_EPOCH   = 516
BSTAR          = -.14446E-2
MEAN_MOTION_DOT = -.80055E-3
MEAN_MOTION_DDOT = 0

CCSDS_OMM_VERS = 2.0
CREATION_DATE  = 
ORIGINATOR     = 

OBJECT_NAME    = STARLINK-35155
OBJECT_ID      = 2025-225AB
CENTER_NAME    = EARTH
REF_FRAME      = TEME
TIME_SYSTEM    = UTC
MEAN_ELEMENT_THEORY = SGP/SGP4

EPOCH          = 2025-11-03T20:00:03.000384
MEAN_MOTION    = 15.49340957
ECCENTRICITY   = .0000982
INCLINATION    = 53.1601
RA_OF_ASC_NODE = 32.2872
ARG_OF_PERICENTER = 59.4706
MEAN_ANOMALY   = 187.7963

EPHEMERIS_TYPE = 0
CLASSIFICATION_TYPE = U
NORAD_CAT_ID   = 65935
ELEMENT_SET_NO = 999
REV_AT_EPOCH   = 516
BSTAR          = -.15995E-2
MEAN_MOTION_DOT = -.88503E-3
MEAN_MOTION_DDOT = 0

CCSDS_OMM_VERS = 2.0
CREATION_DATE  = 
ORIGINATOR     = 

OBJECT_NAME    = STARLINK-35161
OBJECT_ID      = 2025-225AC
CENTER_NAME    = EARTH
REF_FRAME      = TEME
TIME_SYSTEM    = UTC
MEAN_ELEMENT_THEORY = SGP/SGP4

EPOCH          = 2025-11-03T20:00:03.000384
MEAN_MOTION    = 15.49340686
ECCENTRICITY   = .0000997
INCLINATION    = 53.1602
RA_OF_ASC_NODE = 32.2796
ARG_OF_PERICENTER = 61.0284
MEAN_ANOMALY   = 190.0677

EPHEMERIS_TYPE = 0
CLASSIFICATION_TYPE = U
NORAD_CAT_ID   = 65936
ELEMENT_SET_NO = 999
REV_AT_EPOCH   = 517
BSTAR          = -.1495E-2
MEAN_MOTION_DOT = -.8281E-3
MEAN_MOTION_DDOT = 0

CCSDS_OMM_VERS = 2.0
CREATION_DATE  = 
ORIGINATOR     = 

OBJECT_NAME    = STARLINK-35473
OBJECT_ID      = 2025-225AD
CENTER_NAME    = EARTH
REF_FRAME      = TEME
TIME_SYSTEM    = UTC
MEAN_ELEMENT_THEORY = SGP/SGP4

EPOCH          = 2025-11-03T20:00:03.000384
MEAN_MOTION    = 15.49342601
ECCENTRICITY   = .0000992
INCLINATION    = 53.1601
RA_OF_ASC_NODE = 32.2760
ARG_OF_PERICENTER = 67.3903
MEAN_ANOMALY   = 185.6235

EPHEMERIS_TYPE = 0
CLASSIFICATION_TYPE = U
NORAD_CAT_ID   = 65937
ELEMENT_SET_NO = 999
REV_AT_EPOCH   = 517
BSTAR          = -.15904E-2
MEAN_MOTION_DOT = -.88014E-3
MEAN_MOTION_DDOT = 0

CCSDS_OMM_VERS = 2.0
CREATION_DATE  = 
ORIGINATOR     = 

OBJECT_NAME    = 2025-226A
OBJECT_ID      = 2025-226A
CENTER_NAME    = EARTH
REF_FRAME      = TEME
TIME_SYSTEM    = UTC
MEAN_ELEMENT_THEORY = SGP/SGP4

EPOCH          = 2025-11-03T20:08:52.844928
MEAN_MOTION    = 15.11909271
ECCENTRICITY   = .0014963
INCLINATION    = 97.6669
RA_OF_ASC_NODE = 22.0413
ARG_OF_PERICENTER = 198.8944
MEAN_ANOMALY   = 161.1732

EPHEMERIS_TYPE = 0
CLASSIFICATION_TYPE = U
NORAD_CAT_ID   = 65938
ELEMENT_SET_NO = 999
REV_AT_EPOCH   = 359
BSTAR          = .60096E-3
MEAN_MOTION_DOT = .10259E-3
MEAN_MOTION_DDOT = 0

CCSDS_OMM_VERS = 2.0
CREATION_DATE  = 
ORIGINATOR     = 

OBJECT_NAME    = 2025-226B
OBJECT_ID      = 2025-226B
CENTER_NAME    = EARTH
REF_FRAME      = TEME
TIME_SYSTEM    = UTC
MEAN_ELEMENT_THEORY = SGP/SGP4

EPOCH          = 2025-11-03T20:48:08.065728
MEAN_MOTION    = 15.09746543
ECCENTRICITY   = .0020905
INCLINATION    = 97.6634
RA_OF_ASC_NODE = 21.9934
ARG_OF_PERICENTER = 201.7291
MEAN_ANOMALY   = 158.3053

EPHEMERIS_TYPE = 0
CLASSIFICATION_TYPE = U
NORAD_CAT_ID   = 65939
ELEMENT_SET_NO = 999
REV_AT_EPOCH   = 358
BSTAR          = .38093E-3
MEAN_MOTION_DOT = .6112E-4
MEAN_MOTION_DDOT = 0

CCSDS_OMM_VERS = 2.0
CREATION_DATE  = 
ORIGINATOR     = 

OBJECT_NAME    = 2025-226C
OBJECT_ID      = 2025-226C
CENTER_NAME    = EARTH
REF_FRAME      = TEME
TIME_SYSTEM    = UTC
MEAN_ELEMENT_THEORY = SGP/SGP4

EPOCH          = 2025-11-03T20:11:24.324864
MEAN_MOTION    = 15.11797309
ECCENTRICITY   = .0014916
INCLINATION    = 97.6578
RA_OF_ASC_NODE = 22.0130
ARG_OF_PERICENTER = 196.8429
MEAN_ANOMALY   = 163.2308

EPHEMERIS_TYPE = 0
CLASSIFICATION_TYPE = U
NORAD_CAT_ID   = 65940
ELEMENT_SET_NO = 999
REV_AT_EPOCH   = 358
BSTAR          = .60651E-3
MEAN_MOTION_DOT = .10323E-3
MEAN_MOTION_DDOT = 0

CCSDS_OMM_VERS = 2.0
CREATION_DATE  = 
ORIGINATOR     = 

OBJECT_NAME    = YOTSUBA-KULOVER
OBJECT_ID      = 1998-067XN
CENTER_NAME    = EARTH
REF_FRAME      = TEME
TIME_SYSTEM    = UTC
MEAN_ELEMENT_THEORY = SGP/SGP4

EPOCH          = 2025-11-02T04:40:11.378496
MEAN_MOTION    = 15.53311816
ECCENTRICITY   = .00026949
INCLINATION    = 51.6327
RA_OF_ASC_NODE = 342.7961
ARG_OF_PERICENTER = 352.6363
MEAN_ANOMALY   = 7.4587

EPHEMERIS_TYPE = 0
CLASSIFICATION_TYPE = U
NORAD_CAT_ID   = 65941
ELEMENT_SET_NO = 999
REV_AT_EPOCH   = 354
BSTAR          = .79361841E-3
MEAN_MOTION_DOT = .50853E-3
MEAN_MOTION_DDOT = 0

